STARLINK-4171
1 52878U 22062BA  26162.67669283  .00005213  00000+0  34556-3 0  9992
2 52878  53.1620 312.1310 0001259  93.8123 266.3013 15.08816509220258
STARLINK-31932
1 59929U 24106H   26163.27131219  .00689642  00000+0  23111-1 0  9994
2 59929  42.9959 155.1699 0011186 273.2309  86.7263 15.28002102115025
FENGYUN 1C DEB
1 30913U 99025AZB 26104.03003853  .00000383  00000+0  26039-3 0  9992
2 30913  98.7318 131.5324 0048129 196.6033 163.3561 14.05208935976357
ONEWEB-0132
1 47278U 20100W   26163.25986881 -.00000089  00000+0 -28349-3 0  9993
2 47278  87.8940 351.6527 0001736  89.0372 271.0956 13.12444665263930
2023-085U
1 57022U 23085U   23362.19263890  .00012966  00000+0  74465-3 0  9990
2 57022  97.4692 104.3091 0011274 334.4488  25.6184 15.12594918 29587
STARLINK-34195
1 64142U 25111V   26162.76526148  .00028005  00000+0  10229-2 0  9993
2 64142  43.0006 266.3553 0001732 272.8300  87.2354 15.27592866 59854
UNKNOWN
1 82529U          26101.46948692  .00000669  00000+0  10893-2 0  9997
2 82529  99.7765 186.0312 0237628 308.1690  66.2399 13.41239937605791
STARLINK-36135
1 66986U 25288AD  26160.86309541  .00021179  00000+0  77637-3 0  9993
2 66986  42.9977 222.9397 0002242 276.1407  83.9190 15.27603024 29388
STARLINK-35007
1 65287U 25184Q   26163.09924868  .00003605  00000+0  25365-3 0  9999
2 65287  97.3716 214.8529 0001015 126.0059 234.1263 15.05657327 45443
COSMOS 1030 DEB
1 12907U 78083E   26103.70442419  .00074429  38309-6  25683-2 0  9999
2 12907  62.1056  16.0080 7473065  59.0282 353.1609  2.08213472333256
ABS-2A (MONGOLSAT-1)
1 41588U 16038A   26163.19608515  .00000000  00000+0  00000+0 0  9995
2 41588   0.0231 328.5286 0001751  42.2954  35.0415  1.00268218 36654
STARLINK-4766
1 53840U 22114Y   26162.83543976  .00053143  00000+0  32938-2 0  9994
2 53840  53.1599 231.4743 0001513 120.6478 239.4663 15.09262451207182
STARLINK-11235 [DTC]
1 60726U 24152G   26162.84555127 -.00000251  00000+0  27816-5 0  9996
2 60726  53.1588  12.0741 0000786  88.0307 272.0801 15.69708319103750
STARLINK-36966
1 68044U 26041E   26162.75177147  .00020054  00000+0  60297-3 0  9998
2 68044  53.1590 330.5665 0000976  87.3634 272.7480 15.34404489 15826
FENGYUN 1C DEB
1 31898U 99025CKZ 26104.39192276  .00002252  00000+0  33107-3 0  9993
2 31898  98.6949 342.1713 0140162 196.1625 163.5086 14.70141166675133
ONEWEB-0165
1 48233U 21031Z   26163.10129376  .00000181  00000+0  45273-3 0  9997
2 48233  87.8961 290.7245 0001869 113.2317 246.9010 13.14501483247692
STARLINK-30377
1 57825U 23138T   26162.99320539 -.00002635  00000+0 -86317-4 0  9997
2 57825  43.0003  61.3637 0001671 270.2541  89.8119 15.27563105153056
FENGYUN 1C DEB
1 35125U 99025DLD 26100.27630476  .00002866  00000+0  10257-2 0  9993
2 35125  98.2151 110.3540 0050375 300.8569  58.7667 14.34031509329800
STARLINK-36293
1 68515U 26068H   26162.98666950  .00016768  00000+0  50635-3 0  9992
2 68515  53.1590  49.7565 0000521 114.5360 245.5697 15.34396288 11407
STARLINK-31513
1 59529U 24073U   26163.24491854  .00000070  00000+0  12052-4 0  9991
2 59529  43.0016 140.7781 0001105 273.4967  86.5758 15.27576480120679
KUIPER-00147
1 65768U 25217G   26163.19397756  .00003654  00000+0  50796-3 0  9991
2 65768  51.9003 342.6922 0000663 108.6775 251.4260 14.79940020 38905
IRIDIUM 33 DEB
1 34363U 97051FF  23178.85866673  .00049430  00000+0  48737-2 0  9991
2 34363  86.3414  31.6685 0020997  17.4187 342.7756 14.91619704755734
STARLINK-3162
1 49411U 21104D   26163.23742621  .00000455  00000+0  46682-4 0  9995
2 49411  53.1598 154.6134 0001291  84.5273 275.5865 15.08835636253045
GLOBALSTAR M028
1 25875U 99041D   26105.10464242 -.00000095  00000+0  34183-4 0  9994
2 25875  51.9650  12.7861 0063755   7.7135 352.4693 12.50598622227956
LEMUR-2-MORAG
1 44403U 19038T   23362.47941264  .00141624  00000+0  17905-2 0  9990
2 44403  97.6467 354.2726 0010326 334.0107  26.0628 15.58990615248596
STARLINK-5341
1 55287U 23010U   26163.26986303  .00002433  00000+0  21166-3 0  9998
2 55287  69.9991 126.1324 0003965 263.2815  96.7893 14.98323189187928
2024-199AK
1 61768U 24199AK  26163.24443368  .00024888  00000+0  45333-3 0  9995
2 61768  97.2971  37.9937 0003420 322.9003  37.2012 15.49466726133575
HULIANWANG DIGUI-154
1 67530U 26013J   26162.82958275 -.00000087  00000+0  79931-4 0  9994
2 67530  50.0078  14.5073 0001100  95.2084 264.8914 13.29329923 19336
FENGYUN 1C DEB
1 37478U 99025EJY 26104.16451865  .00001672  00000+0  26359-2 0  9995
2 37478  99.6556  79.0862 0548373  37.2573 326.5296 13.03415394581561
STARLINK-3969
1 52551U 22051U   26162.99914913 -.00000535  00000+0 -15533-4 0  9995
2 52551  53.1611  65.6851 0001374  89.0836 271.0313 15.08834083225687
STARLINK-30968
1 58511U 23191D   26163.08143250 -.00000533  00000+0 -98115-5 0  9998
2 58511  43.0078 290.6833 0004143 280.4999  79.5386 15.27573465139903
STARLINK-34548
1 64716U 25142W   26163.15450616  .00003027  00000+0  26135-3 0  9995
2 64716  70.0013  76.1581 0002879 269.0040  91.0789 14.98336270 53614
FENGYUN 1C DEB
1 30532U 99025AJW 23178.43518678  .00008228  00000+0  29827-2 0  9990
2 30532  96.9888 355.6683 0134774 261.3909  97.1988 14.28603765845859
STARLINK-1807
1 46706U 20073AN  26163.25441238  .00032219  00000+0  10623-2 0  9992
2 46706  53.0548 149.8561 0004658  52.3513 307.7909 15.31179629311774
FALCON 9 R/B
1 56758U 23075B   23175.77469595 -.00000029  00000+0  70509-3 0  9993
2 56758  27.8949 143.2562 8173734 187.9167 135.9637  1.20345020   334
STARLINK-11555 [DTC]
1 62915U 25027J   26163.20338764  .00176295  00000+0  13427-2 0  9998
2 62915  43.0015 138.2391 0000718 206.2428 153.8403 15.70942750 78059
KUIPER-00230
1 68579U 26072G   26162.34069419  .00018074  00000+0  48836-3 0  9996
2 68579  51.8752 205.0114 0002584  11.7791 348.3255 15.37798502 10483
CZ-2F DEB
1 59593U 24078C   24117.16437429  .06643541  69424-5  71055-2 0  9992
2 59593  41.6118  40.5394 0251395 137.5527 224.6445 15.69435837   103
STARLINK-35320
1 65834U 25221M   26162.90260191  .00011015  00000+0  38348-3 0  9999
2 65834  53.1603  11.0299 0001254 101.7250 258.3891 15.30199729 39156
STARLINK-2331
1 47875U 21021R   23362.07832125  .00010952  00000+0  75291-3 0  9994
2 47875  53.0541 274.6780 0001475  81.6787 278.4369 15.06403365154742
BEACONC [SGF]
1 01328C 65032A   24169.00000000  .00000082  00000-0  12781-3 0  1693
2 01328  41.1828 261.4515 0248184 108.7089 262.1716 13.38807666    18
STARLINK-4120
1 53537U 22101L   26162.85611768 -.00000234  00000+0  33564-5 0  9993
2 53537  53.1607  11.2959 0001022  87.2107 272.9001 15.08834865210387
IRIDIUM 33 DEB
1 34497U 97051GN  26104.46753419  .00000976  00000+0  37466-3 0  9991
2 34497  86.2821 359.9655 0077928 304.1275 237.4465 14.27933438886347
STARLINK-3228
1 49731U 21115H   23362.47380305  .00003678  00000+0  24896-3 0  9995
2 49731  53.2149 160.4061 0001318  83.0756 277.0386 15.08853402115398
IUS R/B(2)
1 26359U 00024D   26104.18831923 -.00000225  00000+0  00000+0 0  9997
2 26359  13.2754  13.0422 0005073 179.1157 180.8582  0.99703526 24736
ATLAS 5 CENTAUR DEB
1 44661U 18079X   26104.08598865 -.00000046  00000+0  00000+0 0  9997
2 44661  12.9450  66.3925 4629744 249.7741  55.8312  1.72653049 47490
STARLINK-5665
1 55361U 23013AG  26163.16719710  .00000579  00000+0  30566-4 0  9993
2 55361  43.0029 115.0362 0000787 259.4035 100.6728 15.27579040186298
STARLINK-11359 [DTC]
1 61884U 24204L   26162.96800080 -.00000245  00000+0  28372-5 0  9995
2 61884  53.1589 251.3901 0001262  83.5276 276.5886 15.69688082 91727
STARLINK-36638
1 67594U 26018F   26163.12668542  .00012799  00000+0  39805-3 0  9995
2 67594  97.2852 227.9482 0000344 104.5305 255.5977 15.33449221 21804
FENGYUN 1C DEB
1 37704U 99025ELV 23178.58292250  .00001906  00000+0  18768-2 0  9997
2 37704  98.3662 119.4600 0251818  62.3063 109.6219 13.66627876656347
STARLINK-3992
1 52627U 22052AF  26163.30642857  .00000220  00000+0  31897-4 0  9991
2 52627  53.1591 204.3041 0001211  92.8789 267.2341 15.08833160225289
STARLINK-34582
1 64781U 25147AC  26163.26847173  .00028855  00000+0  86169-3 0  9991
2 64781  53.1576 161.9141 0001147  60.1613 299.9504 15.34405901 53185
FENGYUN 1C DEB
1 30629U 99025ANL 26104.83717081  .00006092  00000+0  11742-2 0  9996
2 30629  99.2476 220.2766 0008236 168.9693 321.5531 14.63923814996886
STARLINK-1948
1 46798U 20074BM  23362.12850661  .00001531  00000+0  12159-3 0  9992
2 46798  53.0545 339.4524 0001161 100.9206 259.1914 15.06409666175248
STARLINK-30114
1 56826U 23079D   26162.10652435 -.00000759  00000+0 -18052-4 0  9993
2 56826  43.0038 299.4283 0002727 267.3570  92.6969 15.27578321167480
STARLINK-11570 [DTC]
1 62992U 25031M   26163.26912020  .00110206  00000+0  84729-3 0  9991
2 62992  42.9989 151.6896 0001250 260.3513  99.7213 15.70944513 77605
QIANFAN-116
1 68643U 26075H   26162.55197510 -.01989206  00000+0 -31659+1 0  9997
2 68643  88.9872 321.5599 0014663  18.0482 342.1188 13.53267070  9042
STARLINK-34936
1 65898U 25224S   26163.05725774  .00021225  00000+0  63825-3 0  9994
2 65898  53.1589 291.5118 0000992  89.1625 270.9492 15.34364224 39343
FENGYUN 1C DEB
1 31558U 99025BYZ 26104.22285156  .00000337  00000+0  99175-4 0  9998
2 31558  98.7828   7.6498 0209929 258.8894 254.9868 14.38967860991963
KSU-CUBESAT
1 47954U 21022Y   25080.48433988  .07553150  25571-5  14288-2 0  9994
2 47954  97.3979 355.1054 0007890 193.9656 166.1422 16.32002652221320
TITAN 3C TRANSTAGE R/B
1 05589U 71095C   26104.89016699 -.00000052  00000+0  00000+0 0  9996
2 05589   3.4474 274.1576 0166407 185.0486 156.3627  0.97187445118802
STAR ONE C4
1 40733U 15034B   26163.27084023 -.00000250  00000+0  00000+0 0  9990
2 40733   0.0286  26.0753 0002090  44.4139 217.6297  1.00271325 39966
STARLINK-4647
1 53608U 22104W   26163.28944296  .00000992  00000+0  80402-4 0  9990
2 53608  53.1601 169.5709 0001191  88.5663 271.5465 15.08840711209911
COSMOS 2251 DEB
1 34675U 93036XV  23177.12109294  .00015106  00000+0  29388-2 0  9998
2 34675  74.0297 317.4463 0021088 248.4540 111.4379 14.62969804754988
